OBJECT_NAME,OBJECT_ID,EPOCH,MEAN_MOTION,ECCENTRICITY,INCLINATION,RA_OF_ASC_NODE,ARG_OF_PERICENTER,MEAN_ANOMALY,EPHEMERIS_TYPE,CLASSIFICATION_TYPE,NORAD_CAT_ID,ELEMENT_SET_NO,REV_AT_EPOCH,BSTAR,MEAN_MOTION_DOT,MEAN_MOTION_DDOT
STARLINK-37432,2026-097B,2026-07-14T12:20:14.276832,15.33439123,.00016871,97.2849,30.6312,96.8549,263.2886,0,U,68896,999,1167,.27811753E-3,.8913E-4,0
STARLINK-37534,2026-097C,2026-07-14T11:56:44.844864,15.33444613,.00018791,97.2842,30.6520,90.1930,269.9528,0,U,68897,999,1167,.25730733E-3,.8241E-4,0
STARLINK-37386,2026-097D,2026-07-14T12:43:44.134752,15.33465529,.0002309,97.2848,30.6075,109.1529,250.9964,0,U,68898,999,1167,.28443E-3,.9125E-4,0
STARLINK-37514,2026-097E,2026-07-14T12:55:28.439904,15.33445217,.00025857,97.2837,30.5977,109.7059,250.4463,0,U,68899,999,1167,.2120986E-3,.6779E-4,0
STARLINK-36961,2026-097F,2026-07-14T12:32:00.907872,15.33430536,.00016704,97.2843,30.6184,87.0649,273.0785,0,U,68900,999,1167,.39482682E-3,.12687E-3,0
STARLINK-37360,2026-097G,2026-07-14T13:18:58.094784,15.33436015,.00015251,97.2854,30.7273,92.6363,267.5054,0,U,68901,999,1168,.37522356E-3,.12055E-3,0
STARLINK-37564,2026-097H,2026-07-14T12:08:29.536224,15.33438071,.0001627,97.2849,30.6411,84.6626,275.4802,0,U,68902,999,1167,.21507E-3,.6873E-4,0
STARLINK-37567,2026-097J,2026-07-14T12:39:48.763872,15.33442380,.00020888,97.2845,30.6115,93.7074,266.4408,0,U,68903,999,1167,.16022952E-3,.5101E-4,0
STARLINK-37528,2026-097K,2026-07-14T23:02:21.118560,15.33444216,.00016122,97.2855,31.0948,86.3560,273.7867,0,U,68904,999,1174,.33533954E-3,.10766E-3,0
STARLINK-37494,2026-097L,2026-07-14T12:28:05.322720,15.33446276,.00015143,97.2842,30.6215,89.4129,270.7287,0,U,68905,999,1167,.23942491E-3,.7663E-4,0
STARLINK-37541,2026-097M,2026-07-14T13:03:19.063296,15.33427779,.0001714,97.2856,30.5909,101.5044,258.6392,0,U,68906,999,1167,.18294E-3,.5832E-4,0
STARLINK-37551,2026-097N,2026-07-14T12:59:23.350272,15.33443542,.00017137,97.2853,30.5933,93.5429,266.6010,0,U,68907,999,1167,.21695768E-3,.6935E-4,0
STARLINK-37566,2026-097P,2026-07-14T12:51:33.605568,15.33439993,.00017595,97.2850,30.6021,91.0176,269.1268,0,U,68908,999,1167,.15877224E-3,.5053E-4,0
STARLINK-37544,2026-097Q,2026-07-14T12:47:39.071904,15.33410030,.00011672,97.2852,30.6048,113.8071,246.3294,0,U,68909,999,1167,-.30853956E-3,-.10012E-3,0
STARLINK-37493,2026-097R,2026-07-14T12:35:53.978784,15.33441298,.00027491,97.2846,30.6161,113.7131,246.4400,0,U,68910,999,1167,.37998422E-3,.12212E-3,0
STARLINK-37543,2026-097S,2026-07-14T12:16:20.155296,15.33417435,.0001827,97.2848,30.6342,89.1703,270.9749,0,U,68911,999,1167,.206207E-3,.6582E-4,0
STARLINK-37477,2026-097T,2026-07-14T12:00:39.689568,15.33442789,.00023854,97.2832,30.6477,88.1531,271.9985,0,U,68912,999,1167,.22125771E-3,.7075E-4,0
STARLINK-37504,2026-097U,2026-07-14T12:24:09.218304,15.33443722,.00025819,97.2832,30.6252,108.0351,252.1173,0,U,68913,999,1167,.47606253E-3,.15326E-3,0
STARLINK-37540,2026-097V,2026-07-14T12:12:24.491520,15.33436338,.00015999,97.2853,30.6372,83.3308,276.8117,0,U,68914,999,1167,.32275775E-3,.10356E-3,0
STARLINK-37516,2026-097W,2026-07-14T11:41:05.003808,15.33440494,.00017055,97.2855,30.6690,92.1896,267.9542,0,U,68915,999,1167,.23510732E-3,.7522E-4,0
STARLINK-37507,2026-097X,2026-07-14T13:26:47.891328,15.33440187,.0001475,97.2852,30.7220,92.5083,267.6328,0,U,68916,999,1168,.19527E-3,.6233E-4,0
STARLINK-37542,2026-097Y,2026-07-14T11:48:54.912672,15.33441896,.00015855,97.2853,30.6596,85.0280,275.1144,0,U,68917,999,1167,.19584798E-3,.6252E-4,0
STARLINK-37529,2026-097Z,2026-07-14T13:11:08.160864,15.33440513,.00017818,97.2853,30.7345,96.8886,263.2559,0,U,68918,999,1168,.17999735E-3,.574E-4,0
STARLINK-37258,2026-099A,2026-07-14T20:13:57.509472,15.34402967,.00011431,53.1577,32.3375,120.9157,239.1958,0,U,68951,999,1151,.31720356E-3,.10357E-3,0
STARLINK-37308,2026-099B,2026-07-14T20:10:57.817344,15.34409678,.00009673,53.1576,32.3386,121.1671,238.9427,0,U,68952,999,1151,.60174508E-3,.20015E-3,0
STARLINK-37337,2026-099C,2026-07-14T20:07:54.127488,15.34391235,.00010531,53.1579,32.3311,108.4070,251.7047,0,U,68953,999,1151,.32563862E-3,.10639E-3,0
STARLINK-37301,2026-099D,2026-07-14T23:09:26.087328,15.34404312,.00012134,53.1590,31.6905,96.2045,263.9096,0,U,68954,999,1153,.47952505E-3,.15862E-3,0
STARLINK-36794,2026-099E,2026-07-14T20:04:52.142304,15.34404056,.0001195,53.1588,32.3013,107.3942,252.7191,0,U,68955,999,1151,.20841156E-3,.6672E-4,0
STARLINK-36760,2026-099F,2026-07-14T23:06:24.122016,15.34407422,.00010838,53.1584,31.6631,96.7023,263.4103,0,U,68956,999,1153,.50731336E-3,.16807E-3,0
STARLINK-37047,2026-099G,2026-07-14T19:55:47.154432,15.34396532,.00012487,53.1590,32.2793,123.8051,236.3070,0,U,68957,999,1151,.39178117E-3,.12882E-3,0
